NORAD_CAT_ID,OBJECT_NAME,OBJECT_TYPE,EPOCH,MEAN_MOTION,ECCENTRICITY,INCLINATION,RA_OF_ASC_NODE,ARG_OF_PERICENTER,MEAN_ANOMALY,BSTAR,MEAN_MOTION_DOT,MEAN_MOTION_DDOT,TLE_LINE0,TLE_LINE1,TLE_LINE2,SEMIMAJOR_AXIS,PERIOD,APOGEE,PERIGEE,DECAYED
52553.0,STARLINK-3858,PAYLOAD,2022-08-11 06:00:02,15.08828851,0.0001806,53.2151,233.9421,45.7925,135.576,-0.0015436,-0.00024763,0.0,0 STARLINK-3858,1 52553U 22051W   22223.25002315 -.00024763  00000-0 -15436-2 0  9994,2 52553  53.2151 233.9421 0001806  45.7925 135.5760 15.08828851 14288,6917.9140000000025,95.438,541.029,538.53,0.0
52553.0,STARLINK-3858,PAYLOAD,2022-08-11 14:00:01,15.08825569,0.0001882,53.2148,232.4459,42.5448,150.33,-0.00022701,-3.898e-05,0.0,0 STARLINK-3858,1 52553U 22051W   22223.58334491 -.00003898  00000-0 -22701-3 0  9993,2 52553  53.2148 232.4459 0001882  42.5448 150.3300 15.08825569  1305,6917.924,95.438,541.091,538.488,0.0
52553.0,STARLINK-3858,PAYLOAD,2022-08-11 22:00:00,15.08804871,0.0001744,53.2149,230.9478,48.3042,156.1531,0.0023959,0.00038012,0.0,0 STARLINK-3858,1 52553U 22051W   22223.91667824  .00038012  00000-0  23959-2 0  9998,2 52553  53.2149 230.9478 0001744  48.3042 156.1531 15.08804871 14397,6917.988,95.44,541.059,538.646,0.0
52553.0,STARLINK-3858,PAYLOAD,2022-08-12 14:00:01,15.08840994,0.0001966,53.2151,227.9564,43.515,184.0924,-0.00068176,-0.00011123,0.0,0 STARLINK-3858,1 52553U 22051W   22224.58334491 -.00011123  00000-0 -68176-3 0  9990,2 52553  53.2151 227.9564 0001966  43.5150 184.0924 15.08840994  1304,6917.877,95.437,541.102,538.382,0.0
52553.0,STARLINK-3858,PAYLOAD,2022-08-12 22:00:01,15.08815561,0.0001855999999999,53.2153,226.4583,49.0777,190.1867,0.0024713,0.00039236,0.0,0 STARLINK-3858,1 52553U 22051W   22224.91668981  .00039236  00000-0  24713-2 0  9992,2 52553  53.2153 226.4583 0001856  49.0777 190.1867 15.08815561  1301,6917.955,95.439,541.104,538.536,0.0
52553.0,STARLINK-3858,PAYLOAD,2022-08-13 14:00:01,15.08853839,0.0002061,53.2158,223.4669,44.5287,217.8449,-0.0013115,-0.00021109,0.0,0 STARLINK-3858,1 52553U 22051W   22225.58334491 -.00021109  00000-0 -13115-2 0  9998,2 52553  53.2158 223.4669 0002061  44.5287 217.8449 15.08853839  1306,6917.8380000000025,95.437,541.129,538.2769999999998,0.0
52553.0,STARLINK-3858,PAYLOAD,2022-08-13 22:00:00,15.08826859,0.0001958,53.2162,221.9689,50.2627,223.7189,0.002512,0.00039903,0.0,0 STARLINK-3858,1 52553U 22051W   22225.91667824  .00039903  00000-0  25120-2 0  9992,2 52553  53.2162 221.9689 0001958  50.2627 223.7189 15.08826859  1301,6917.920999999999,95.438,541.14,538.431,0.0
52553.0,STARLINK-3858,PAYLOAD,2022-08-14 06:00:02,15.08852989,0.0002144,53.2164,220.4741,47.2459,238.3971,-0.00080162,-0.00013028,0.0,0 STARLINK-3858,1 52553U 22051W   22226.25002315 -.00013028  00000-0 -80162-3 0  9998,2 52553  53.2164 220.4741 0002144  47.2459 238.3971 15.08852989 14749,6917.840999999999,95.437,541.189,538.2230000000002,0.0
52553.0,STARLINK-3858,PAYLOAD,2022-08-14 14:00:01,15.0886861,0.000213,53.2165,218.9775,45.9779,251.2031,-0.0017069,-0.00027373,0.0,0 STARLINK-3858,1 52553U 22051W   22226.58334491 -.00027373  00000-0 -17069-2 0  9990,2 52553  53.2165 218.9775 0002130  45.9779 251.2031 15.08868610  1301,6917.793000000002,95.436,541.131,538.184,0.0
52553.0,STARLINK-3858,PAYLOAD,2022-08-14 22:00:00,15.08839963,0.0002021999999999,53.217,217.4796,51.9459,256.857,0.0024943,0.00039633,0.0,0 STARLINK-3858,1 52553U 22051W   22226.91667824  .00039633  00000-0  24943-2 0  9995,2 52553  53.2170 217.4796 0002022  51.9459 256.8570 15.08839963  1304,6917.880999999999,95.438,541.144,538.347,0.0
52553.0,STARLINK-3858,PAYLOAD,2022-08-15 00:00:00,15.08858893,0.0002037,53.2172,217.1059,52.2598,349.4389,0.00073452,0.00011427,0.0,0 STARLINK-3858,1 52553U 22051W   22227.00001157  .00011427  00000-0  73452-3 0  9998,2 52553  53.2172 217.1059 0002037  52.2598 349.4389 15.08858893 14853,6917.823,95.436,541.097,538.278,0.0
52553.0,STARLINK-3858,PAYLOAD,2022-08-15 14:00:01,15.08871689,0.0002102,53.217,214.4881,46.1878,285.8442,-0.0037409999999999,-0.00059389,0.0,0 STARLINK-3858,1 52553U 22051W   22227.58334491 -.00059389  00000-0 -37410-2 0  9995,2 52553  53.2170 214.4881 0002102  46.1878 285.8442 15.08871689  1307,6917.784000000002,95.436,541.1030000000002,538.194,0.0
52553.0,STARLINK-3858,PAYLOAD,2022-08-15 16:00:00,15.08854694,0.0002034,53.2172,214.1135,48.1053,16.8346,-0.0022142,-0.0003537,0.0,0 STARLINK-3858,1 52553U 22051W   22227.66667824 -.00035370  00000-0 -22142-2 0  9993,2 52553  53.2172 214.1135 0002034  48.1053  16.8346 15.08854694 14956,6917.835,95.437,541.1080000000002,538.293,0.0
52553.0,STARLINK-3858,PAYLOAD,2022-08-15 22:00:00,15.08825585,0.0001955999999999,53.2174,212.9906,51.7809,291.8618,0.0023487,0.00037275,0.0,0 STARLINK-3858,1 52553U 22051W   22227.91667824  .00037275  00000-0  23487-2 0  9998,2 52553  53.2174 212.9906 0001956  51.7809 291.8618 15.08825585  1300,6917.924,95.438,541.143,538.436,0.0
52553.0,STARLINK-3858,PAYLOAD,2022-08-16 06:00:02,15.08845372,0.0002141,53.2173,211.496,47.8843,307.4158,-0.00063585,-0.00010395,0.0,0 STARLINK-3858,1 52553U 22051W   22228.25002315 -.00010395  00000-0 -63585-3 0  9994,2 52553  53.2173 211.4960 0002141  47.8843 307.4158 15.08845372 15049,6917.864000000001,95.437,541.21,538.248,0.0
52553.0,STARLINK-3858,PAYLOAD,2022-08-16 14:00:01,15.08864242,0.0002085999999999,53.2171,209.9991,47.7291,319.1029,-0.002106,-0.00033672,0.0,0 STARLINK-3858,1 52553U 22051W   22228.58334491 -.00033672  00000-0 -21060-2 0  9997,2 52553  53.2171 209.9991 0002086  47.7291 319.1029 15.08864242  1305,6917.806,95.436,541.114,538.2280000000002,0.0
52553.0,STARLINK-3858,PAYLOAD,2022-08-16 22:00:00,15.088440099999998,0.0001949,53.2173,208.5018,53.4408,325.0013,0.0012687999999999,0.00019965,0.0,0 STARLINK-3858,1 52553U 22051W   22228.91667824  .00019965  00000-0  12688-2 0  9996,2 52553  53.2173 208.5018 0001949  53.4408 325.0013 15.08844010  1303,6917.868,95.437,541.081,538.385,0.0
52553.0,STARLINK-3858,PAYLOAD,2022-08-17 06:00:02,15.08843107,0.0002097,53.2171,207.0072,48.5223,341.5952,-0.0019329,-0.00030922,0.0,0 STARLINK-3858,1 52553U 22051W   22229.25002315 -.00030922  00000-0 -19329-2 0  9999,2 52553  53.2171 207.0072 0002097  48.5223 341.5952 15.08843107 15193,6917.871,95.437,541.187,538.285,0.0
52553.0,STARLINK-3858,PAYLOAD,2022-08-17 16:00:00,15.08834533,0.0001947,53.2168,205.1357,50.3666,84.1705,-0.0006275,-0.0001026,0.0,0 STARLINK-3858,1 52553U 22051W   22229.66667824 -.00010260  00000-0 -62750-3 0  9996,2 52553  53.2168 205.1357 0001947  50.3666  84.1705 15.08834533  1306,6917.897,95.438,541.109,538.415,0.0
52553.0,STARLINK-3858,PAYLOAD,2022-08-18 14:00:01,15.08835987,0.0001958,53.2162,201.0213,48.4936,27.8648,-0.0016394,-0.00026282,0.0,0 STARLINK-3858,1 52553U 22051W   22230.58334491 -.00026282  00000-0 -16394-2 0  9993,2 52553  53.2162 201.0213 0001958  48.4936  27.8648 15.08835987  1300,6917.893,95.438,541.112,538.403,0.0
52553.0,STARLINK-3858,PAYLOAD,2022-08-18 22:00:00,15.08824903,0.0001911999999999,53.2162,199.5242,54.2458,33.6902,0.00154,0.00024296,0.0,0 STARLINK-3858,1 52553U 22051W   22230.91667824  .00024296  00000-0  15400-2 0  9997,2 52553  53.2162 199.5242 0001912  54.2458  33.6902 15.08824903  1301,6917.927,95.439,541.114,538.469,0.0
52553.0,STARLINK-3858,PAYLOAD,2022-08-19 14:00:01,15.08855697,0.0002021999999999,53.216,196.5324,50.0397,61.0663,-0.0014616,-0.00023485,0.0,0 STARLINK-3858,1 52553U 22051W   22231.58334491 -.00023485  00000-0 -14616-2 0  9991,2 52553  53.2160 196.5324 0002022  50.0397  61.0663 15.08855697  1309,6917.831999999999,95.437,541.096,538.299,0.0
52553.0,STARLINK-3858,PAYLOAD,2022-08-19 16:00:00,15.08839593,0.0001963,53.2161,196.1578,51.3209,152.6911,0.00064154,9.937e-05,0.0,0 STARLINK-3858,1 52553U 22051W   22231.66667824  .00009937  00000-0  64154-3 0  9996,2 52553  53.2161 196.1578 0001963  51.3209 152.6911 15.08839593 15569,6917.882,95.438,541.105,538.389,0.0
52553.0,STARLINK-3858,PAYLOAD,2022-08-19 22:00:00,15.08848101,0.0001996,53.2161,195.0352,54.6757,68.0256,0.00062722,9.71e-05,0.0,0 STARLINK-3858,1 52553U 22051W   22231.91667824  .00009710  00000-0  62722-3 0  9992,2 52553  53.2161 195.0352 0001996  54.6757  68.0256 15.08848101  1301,6917.856,95.437,541.101,538.34,0.0
52553.0,STARLINK-3858,PAYLOAD,2022-08-20 14:00:01,15.08842901,0.0002002,53.2161,192.0431,49.1164,96.7827,-0.0013495999999999,-0.00021705,0.0,0 STARLINK-3858,1 52553U 22051W   22232.58334491 -.00021705  00000-0 -13496-2 0  9990,2 52553  53.2161 192.0431 0002002  49.1164  96.7827 15.08842901  1300,6917.871999999999,95.437,541.121,538.352,0.0
52553.0,STARLINK-3858,PAYLOAD,2022-08-20 16:00:00,15.08821791,0.0001964,53.2162,191.6686,49.9168,188.8842,0.00098976,0.00015491,0.0,0 STARLINK-3858,1 52553U 22051W   22232.66667824  .00015491  00000-0  98976-3 0  9998,2 52553  53.2162 191.6686 0001964  49.9168 188.8842 15.08821791 15710,6917.936,95.439,541.16,538.442,0.0
52553.0,STARLINK-3858,PAYLOAD,2022-08-20 22:00:00,15.08838882,0.0002011,53.2164,190.5462,53.7681,103.7126,0.00056409,8.701e-05,0.0,0 STARLINK-3858,1 52553U 22051W   22232.91667824  .00008701  00000-0  56409-3 0  9997,2 52553  53.2164 190.5462 0002011  53.7681 103.7126 15.08838882  1309,6917.884,95.438,541.14,538.3580000000002,0.0
52553.0,STARLINK-3858,PAYLOAD,2022-08-21 14:00:01,15.08863365,0.0002035,53.2164,187.554,49.6069,131.0628,-0.0039708,-0.00062973,0.0,0 STARLINK-3858,1 52553U 22051W   22233.58334491 -.00062973  00000-0 -39708-2 0  9997,2 52553  53.2164 187.5540 0002035  49.6069 131.0628 15.08863365  1307,6917.809,95.436,541.082,538.266,0.0
52553.0,STARLINK-3858,PAYLOAD,2022-08-21 22:00:00,15.08831858,0.0002004,53.2168,186.0573,53.0602,139.1995,0.00019105,2.753e-05,0.0,0 STARLINK-3858,1 52553U 22051W   22233.91667824  .00002753  00000-0  19105-3 0  9991,2 52553  53.2168 186.0573 0002004  53.0602 139.1995 15.08831858  1307,6917.905,95.438,541.1569999999998,538.384,0.0
